ONEWEB-0582             
1 54649U 22166H   26084.48670687  .00000048  00000+0  84877-4 0  9990
2 54649  87.9168 260.6578 0001340 107.3164 252.8117 13.21827078160465
ONEWEB-0583             
1 54650U 22166J   26084.49822389  .00000117  00000+0  25205-3 0  9997
2 54650  87.9165 260.6788 0001685  99.9956 260.1368 13.21825247160471
ONEWEB-0584             
1 54651U 22166K   26084.44227350  .00000089  00000+0  18494-3 0  9990
2 54651  87.9165 260.6770 0001351  99.1750 260.9536 13.21827636160454
ONEWEB-0585             
1 54652U 22166L   26084.46696878 -.00000010  00000+0 -55898-4 0  9994
2 54652  87.9169 260.6567 0001790  91.8216 268.3123 13.21825585160462
ONEWEB-0586             
1 54653U 22166M   26084.48014052  .00000054  00000+0  99931-4 0  9997
2 54653  87.9165 260.6800 0001653 101.4341 258.6979 13.21826672160463
ONEWEB-0587             
1 54654U 22166N   26084.41430767 -.00000006  00000+0 -45714-4 0  9995
2 54654  87.9179 260.6584 0002022  89.4592 270.6774 13.21825550160610
ONEWEB-0589             
1 54655U 22166P   26084.40114274 -.00000068  00000+0 -19632-3 0  9994
2 54655  87.9166 260.6842 0000980 116.2846 243.8389 13.21825558160472
ONEWEB-0590             
1 54656U 22166Q   26084.42569066  .00000059  00000+0  11079-3 0  9995
2 54656  87.9173 260.6610 0001520  80.5698 279.5608 13.21825893160464
ONEWEB-0591             
1 54657U 22166R   26084.43735391  .00000101  00000+0  21411-3 0  9992
2 54657  87.9169 260.6793 0001649  93.2690 266.8633 13.21825651160499
ONEWEB-0592             
1 54658U 22166S   26084.44064167  .00000136  00000+0  29793-3 0  9999
2 54658  87.9176 260.6501 0001666  94.2887 265.8437 13.21825527160373
ONEWEB-0593             
1 54659U 22166T   26084.46365658 -.00000223  00000+0 -57203-3 0  9997
2 54659  87.9170 260.6637 0001669 100.5881 259.5441 13.21825645160484
ONEWEB-0594             
1 54660U 22166U   26084.48342101  .00000029  00000+0  39789-4 0  9991
2 54660  87.9166 260.6775 0001825  94.2765 265.8577 13.21825430160503
ONEWEB-0595             
1 54661U 22166V   26084.46038761  .00000028  00000+0  35274-4 0  9998
2 54661  87.9175 260.6558 0001810  89.2797 270.8544 13.21824997160479
ONEWEB-0596             
1 54662U 22166W   26084.43405806  .00000106  00000+0  22540-3 0  9992
2 54662  87.9168 260.6774 0001738  92.0088 268.1245 13.21825763160476
ONEWEB-0597             
1 54663U 22166X   26084.49163628 -.00000182  00000+0 -47135-3 0  9995
2 54663  87.9166 260.6709 0001564  98.2262 261.9049 13.21825347160484
ONEWEB-0600             
1 54664U 22166Y   26084.47355385  .00000021  00000+0  19655-4 0  9994
2 54664  87.9167 260.6655 0001779 102.7206 257.4127 13.21825178160459
ONEWEB-0601             
1 54665U 22166Z   26084.46530756  .00000019  00000+0  14260-4 0  9995
2 54665  87.9166 260.6842 0001470 101.7798 258.3501 13.21828080160642
