[{"OBJECT_NAME":"ONEWEB-0582","OBJECT_ID":"2022-166H","EPOCH":"2026-03-25T11:40:51.473568","MEAN_MOTION":13.21827078,"ECCENTRICITY":0.00013406,"INCLINATION":87.9168,"RA_OF_ASC_NODE":260.6578,"ARG_OF_PERICENTER":107.3164,"MEAN_ANOMALY":252.8117,"EPHEMERIS_TYPE":0,"CLASSIFICATION_TYPE":"U","NORAD_CAT_ID":54649,"ELEMENT_SET_NO":999,"REV_AT_EPOCH":16046,"BSTAR":8.4876582e-5,"MEAN_MOTION_DOT":4.8e-7,"MEAN_MOTION_DDOT":0},{"OBJECT_NAME":"ONEWEB-0583","OBJECT_ID":"2022-166J","EPOCH":"2026-03-25T11:57:26.544096","MEAN_MOTION":13.21825247,"ECCENTRICITY":0.00016851,"INCLINATION":87.9165,"RA_OF_ASC_NODE":260.6788,"ARG_OF_PERICENTER":99.9956,"MEAN_ANOMALY":260.1368,"EPHEMERIS_TYPE":0,"CLASSIFICATION_TYPE":"U","NORAD_CAT_ID":54650,"ELEMENT_SET_NO":999,"REV_AT_EPOCH":16047,"BSTAR":0.00025204576,"MEAN_MOTION_DOT":1.17e-6,"MEAN_MOTION_DDOT":0},{"OBJECT_NAME":"ONEWEB-0584","OBJECT_ID":"2022-166K","EPOCH":"2026-03-25T10:36:52.430400","MEAN_MOTION":13.21827636,"ECCENTRICITY":0.00013511,"INCLINATION":87.9165,"RA_OF_ASC_NODE":260.677,"ARG_OF_PERICENTER":99.175,"MEAN_ANOMALY":260.9536,"EPHEMERIS_TYPE":0,"CLASSIFICATION_TYPE":"U","NORAD_CAT_ID":54651,"ELEMENT_SET_NO":999,"REV_AT_EPOCH":16045,"BSTAR":0.00018494407,"MEAN_MOTION_DOT":8.9e-7,"MEAN_MOTION_DDOT":0},{"OBJECT_NAME":"ONEWEB-0585","OBJECT_ID":"2022-166L","EPOCH":"2026-03-25T11:12:26.102592","MEAN_MOTION":13.21825585,"ECCENTRICITY":0.00017901,"INCLINATION":87.9169,"RA_OF_ASC_NODE":260.6567,"ARG_OF_PERICENTER":91.8216,"MEAN_ANOMALY":268.3123,"EPHEMERIS_TYPE":0,"CLASSIFICATION_TYPE":"U","NORAD_CAT_ID":54652,"ELEMENT_SET_NO":999,"REV_AT_EPOCH":16046,"BSTAR":-5.5897725e-5,"MEAN_MOTION_DOT":-1.0e-7,"MEAN_MOTION_DDOT":0},{"OBJECT_NAME":"ONEWEB-0586","OBJECT_ID":"2022-166M","EPOCH":"2026-03-25T11:31:24.140928","MEAN_MOTION":13.21826672,"ECCENTRICITY":0.00016533,"INCLINATION":87.9165,"RA_OF_ASC_NODE":260.68,"ARG_OF_PERICENTER":101.4341,"MEAN_ANOMALY":258.6979,"EPHEMERIS_TYPE":0,"CLASSIFICATION_TYPE":"U","NORAD_CAT_ID":54653,"ELEMENT_SET_NO":999,"REV_AT_EPOCH":16046,"BSTAR":9.9931461e-5,"MEAN_MOTION_DOT":5.4e-7,"MEAN_MOTION_DDOT":0},{"OBJECT_NAME":"ONEWEB-0587","OBJECT_ID":"2022-166N","EPOCH":"2026-03-25T09:56:36.182688","MEAN_MOTION":13.2182555,"ECCENTRICITY":0.00020222,"INCLINATION":87.9179,"RA_OF_ASC_NODE":260.6584,"ARG_OF_PERICENTER":89.4592,"MEAN_ANOMALY":270.6774,"EPHEMERIS_TYPE":0,"CLASSIFICATION_TYPE":"U","NORAD_CAT_ID":54654,"ELEMENT_SET_NO":999,"REV_AT_EPOCH":16061,"BSTAR":-4.5714038e-5,"MEAN_MOTION_DOT":-6.0e-8,"MEAN_MOTION_DDOT":0},{"OBJECT_NAME":"ONEWEB-0589","OBJECT_ID":"2022-166P","EPOCH":"2026-03-25T09:37:38.732736","MEAN_MOTION":13.21825558,"ECCENTRICITY":9.8e-5,"INCLINATION":87.9166,"RA_OF_ASC_NODE":260.6842,"ARG_OF_PERICENTER":116.2846,"MEAN_ANOMALY":243.8389,"EPHEMERIS_TYPE":0,"CLASSIFICATION_TYPE":"U","NORAD_CAT_ID":54655,"ELEMENT_SET_NO":999,"REV_AT_EPOCH":16047,"BSTAR":-0.00019631546,"MEAN_MOTION_DOT":-6.8e-7,"MEAN_MOTION_DDOT":0},{"OBJECT_NAME":"ONEWEB-0590","OBJECT_ID":"2022-166Q","EPOCH":"2026-03-25T10:12:59.673024","MEAN_MOTION":13.21825893,"ECCENTRICITY":0.00015202,"INCLINATION":87.9173,"RA_OF_ASC_NODE":260.661,"ARG_OF_PERICENTER":80.5698,"MEAN_ANOMALY":279.5608,"EPHEMERIS_TYPE":0,"CLASSIFICATION_TYPE":"U","NORAD_CAT_ID":54656,"ELEMENT_SET_NO":999,"REV_AT_EPOCH":16046,"BSTAR":0.00011078858,"MEAN_MOTION_DOT":5.9e-7,"MEAN_MOTION_DDOT":0},{"OBJECT_NAME":"ONEWEB-0591","OBJECT_ID":"2022-166R","EPOCH":"2026-03-25T10:29:47.377824","MEAN_MOTION":13.21825651,"ECCENTRICITY":0.0001649,"INCLINATION":87.9169,"RA_OF_ASC_NODE":260.6793,"ARG_OF_PERICENTER":93.269,"MEAN_ANOMALY":266.8633,"EPHEMERIS_TYPE":0,"CLASSIFICATION_TYPE":"U","NORAD_CAT_ID":54657,"ELEMENT_SET_NO":999,"REV_AT_EPOCH":16049,"BSTAR":0.00021411365,"MEAN_MOTION_DOT":1.01e-6,"MEAN_MOTION_DDOT":0},{"OBJECT_NAME":"ONEWEB-0592","OBJECT_ID":"2022-166S","EPOCH":"2026-03-25T10:34:31.440288","MEAN_MOTION":13.21825527,"ECCENTRICITY":0.00016669,"INCLINATION":87.9176,"RA_OF_ASC_NODE":260.6501,"ARG_OF_PERICENTER":94.2887,"MEAN_ANOMALY":265.8437,"EPHEMERIS_TYPE":0,"CLASSIFICATION_TYPE":"U","NORAD_CAT_ID":54658,"ELEMENT_SET_NO":999,"REV_AT_EPOCH":16037,"BSTAR":0.00029793315,"MEAN_MOTION_DOT":1.36e-6,"MEAN_MOTION_DDOT":0},{"OBJECT_NAME":"ONEWEB-0593","OBJECT_ID":"2022-166T","EPOCH":"2026-03-25T11:07:39.928512","MEAN_MOTION":13.21825645,"ECCENTRICITY":0.00016698,"INCLINATION":87.917,"RA_OF_ASC_NODE":260.6637,"ARG_OF_PERICENTER":100.5881,"MEAN_ANOMALY":259.5441,"EPHEMERIS_TYPE":0,"CLASSIFICATION_TYPE":"U","NORAD_CAT_ID":54659,"ELEMENT_SET_NO":999,"REV_AT_EPOCH":16048,"BSTAR":-0.00057203211,"MEAN_MOTION_DOT":-2.23e-6,"MEAN_MOTION_DDOT":0},{"OBJECT_NAME":"ONEWEB-0594","OBJECT_ID":"2022-166U","EPOCH":"2026-03-25T11:36:07.575264","MEAN_MOTION":13.2182543,"ECCENTRICITY":0.00018251,"INCLINATION":87.9166,"RA_OF_ASC_NODE":260.6775,"ARG_OF_PERICENTER":94.2765,"MEAN_ANOMALY":265.8577,"EPHEMERIS_TYPE":0,"CLASSIFICATION_TYPE":"U","NORAD_CAT_ID":54660,"ELEMENT_SET_NO":999,"REV_AT_EPOCH":16050,"BSTAR":3.9789331e-5,"MEAN_MOTION_DOT":2.9e-7,"MEAN_MOTION_DDOT":0},{"OBJECT_NAME":"ONEWEB-0595","OBJECT_ID":"2022-166V","EPOCH":"2026-03-25T11:02:57.489504","MEAN_MOTION":13.21824997,"ECCENTRICITY":0.00018108,"INCLINATION":87.9175,"RA_OF_ASC_NODE":260.6558,"ARG_OF_PERICENTER":89.2797,"MEAN_ANOMALY":270.8544,"EPHEMERIS_TYPE":0,"CLASSIFICATION_TYPE":"U","NORAD_CAT_ID":54661,"ELEMENT_SET_NO":999,"REV_AT_EPOCH":16047,"BSTAR":3.5273796e-5,"MEAN_MOTION_DOT":2.8e-7,"MEAN_MOTION_DDOT":0},{"OBJECT_NAME":"ONEWEB-0596","OBJECT_ID":"2022-166W","EPOCH":"2026-03-25T10:25:02.616384","MEAN_MOTION":13.21825763,"ECCENTRICITY":0.00017381,"INCLINATION":87.9168,"RA_OF_ASC_NODE":260.6774,"ARG_OF_PERICENTER":92.0088,"MEAN_ANOMALY":268.1245,"EPHEMERIS_TYPE":0,"CLASSIFICATION_TYPE":"U","NORAD_CAT_ID":54662,"ELEMENT_SET_NO":999,"REV_AT_EPOCH":16047,"BSTAR":0.00022539718,"MEAN_MOTION_DOT":1.06e-6,"MEAN_MOTION_DDOT":0},{"OBJECT_NAME":"ONEWEB-0597","OBJECT_ID":"2022-166X","EPOCH":"2026-03-25T11:47:57.374592","MEAN_MOTION":13.21825347,"ECCENTRICITY":0.00015648,"INCLINATION":87.9166,"RA_OF_ASC_NODE":260.6709,"ARG_OF_PERICENTER":98.2262,"MEAN_ANOMALY":261.9049,"EPHEMERIS_TYPE":0,"CLASSIFICATION_TYPE":"U","NORAD_CAT_ID":54663,"ELEMENT_SET_NO":999,"REV_AT_EPOCH":16048,"BSTAR":-0.0004713519,"MEAN_MOTION_DOT":-1.82e-6,"MEAN_MOTION_DDOT":0},{"OBJECT_NAME":"ONEWEB-0600","OBJECT_ID":"2022-166Y","EPOCH":"2026-03-25T11:21:55.052640","MEAN_MOTION":13.21825178,"ECCENTRICITY":0.00017795,"INCLINATION":87.9167,"RA_OF_ASC_NODE":260.6655,"ARG_OF_PERICENTER":102.7206,"MEAN_ANOMALY":257.4127,"EPHEMERIS_TYPE":0,"CLASSIFICATION_TYPE":"U","NORAD_CAT_ID":54664,"ELEMENT_SET_NO":999,"REV_AT_EPOCH":16045,"BSTAR":1.9655098e-5,"MEAN_MOTION_DOT":2.1e-7,"MEAN_MOTION_DDOT":0},{"OBJECT_NAME":"ONEWEB-0601","OBJECT_ID":"2022-166Z","EPOCH":"2026-03-25T11:10:02.573184","MEAN_MOTION":13.2182808,"ECCENTRICITY":0.00014705,"INCLINATION":87.9166,"RA_OF_ASC_NODE":260.6842,"ARG_OF_PERICENTER":101.7798,"MEAN_ANOMALY":258.3501,"EPHEMERIS_TYPE":0,"CLASSIFICATION_TYPE":"U","NORAD_CAT_ID":54665,"ELEMENT_SET_NO":999,"REV_AT_EPOCH":16064,"BSTAR":1.426045e-5,"MEAN_MOTION_DOT":1.9e-7,"MEAN_MOTION_DDOT":0}]
